{
    "links": {
        "self": "http://www.neowsapp.com/rest/v1/neo/3689237?api_key=iIulBulltgU6a56xZRHN4H3l9WmuAYTsLGpBGhQ2"
    },
    "id": "3689237",
    "neo_reference_id": "3689237",
    "name": "(2014 SN)",
    "designation": "2014 SN",
    "nasa_jpl_url": "http://ssd.jpl.nasa.gov/sbdb.cgi?sstr=3689237",
    "absolute_magnitude_h": 23.8,
    "estimated_diameter": {
        "kilometers": {
            "estimated_diameter_min": 0.046190746,
            "estimated_diameter_max": 0.1032856481
        },
        "meters": {
            "estimated_diameter_min": 46.1907460282,
            "estimated_diameter_max": 103.2856480504
        },
        "miles": {
            "estimated_diameter_min": 0.0287015901,
            "estimated_diameter_max": 0.0641787064
        },
        "feet": {
            "estimated_diameter_min": 151.544447199,
            "estimated_diameter_max": 338.8636855496
        }
    },
    "is_potentially_hazardous_asteroid": false,
    "close_approach_data": [
        {
            "close_approach_date": "1989-09-14",
            "close_approach_date_full": "1989-Sep-14 13:58",
            "epoch_date_close_approach": 621784680000,
            "relative_velocity": {
                "kilometers_per_second": "12.0501088644",
                "kilometers_per_hour": "43380.3919119422",
                "miles_per_hour": "26954.8885188399"
            },
            "miss_distance": {
                "astronomical": "0.3133390319",
                "lunar": "121.8888834091",
                "kilometers": "46874851.760102053",
                "miles": "29126682.2615242114"
            },
            "orbiting_body": "Earth"
        },
        {
            "close_approach_date": "2014-09-24",
            "close_approach_date_full": "2014-Sep-24 09:21",
            "epoch_date_close_approach": 1411550460000,
            "relative_velocity": {
                "kilometers_per_second": "6.3718117456",
                "kilometers_per_hour": "22938.5222840421",
                "miles_per_hour": "14253.1056936594"
            },
            "miss_distance": {
                "astronomical": "0.1237291102",
                "lunar": "48.1306238678",
                "kilometers": "18509611.342915274",
                "miles": "11501339.1643038212"
            },
            "orbiting_body": "Earth"
        },
        {
            "close_approach_date": "2016-09-09",
            "close_approach_date_full": "2016-Sep-09 06:25",
            "epoch_date_close_approach": 1473402300000,
            "relative_velocity": {
                "kilometers_per_second": "15.1762271516",
                "kilometers_per_hour": "54634.4177458154",
                "miles_per_hour": "33947.7025154485"
            },
            "miss_distance": {
                "astronomical": "0.4340943548",
                "lunar": "168.8627040172",
                "kilometers": "64939590.857104276",
                "miles": "40351590.6304839688"
            },
            "orbiting_body": "Earth"
        },
        {
            "close_approach_date": "2041-09-22",
            "close_approach_date_full": "2041-Sep-22 17:20",
            "epoch_date_close_approach": 2263483200000,
            "relative_velocity": {
                "kilometers_per_second": "7.2369872264",
                "kilometers_per_hour": "26053.1540150522",
                "miles_per_hour": "16188.4167267417"
            },
            "miss_distance": {
                "astronomical": "0.1221943342",
                "lunar": "47.5335960038",
                "kilometers": "18280012.122388154",
                "miles": "11358672.8241943652"
            },
            "orbiting_body": "Earth"
        }
    ],
    "orbital_data": {
        "orbit_id": "7",
        "orbit_determination_date": "2017-04-06 08:38:40",
        "first_observation_date": "2014-09-04",
        "last_observation_date": "2014-09-28",
        "data_arc_in_days": 24,
        "observations_used": 24,
        "orbit_uncertainty": "7",
        "minimum_orbit_intersection": ".115659",
        "jupiter_tisserand_invariant": "4.381",
        "epoch_osculation": "2459000.5",
        "eccentricity": ".2979979401162882",
        "semi_major_axis": "1.54883342041792",
        "inclination": "11.17926815589185",
        "ascending_node_longitude": "167.4822982012264",
        "orbital_period": "704.0532273985854",
        "perihelion_distance": "1.087284251550115",
        "perihelion_argument": "216.7829588901371",
        "aphelion_distance": "2.010382589285725",
        "perihelion_time": "2459063.227588014774",
        "mean_anomaly": "327.925817528375",
        "mean_motion": ".5113249765648661",
        "equinox": "J2000",
        "orbit_class": {
            "orbit_class_type": "AMO",
            "orbit_class_description": "Near-Earth asteroid orbits similar to that of 1221 Amor",
            "orbit_class_range": "1.017 AU < q (perihelion) < 1.3 AU"
        }
    },
    "is_sentry_object": false
}